STARLINK-3563           
1 51858U 22022G   26068.30805094  .00000266  00000+0  34786-4 0  9991
2 51858  53.2194  20.8334 0001463  84.9792 275.1367 15.08837142222967
2024-205L               
1 61904U 24205L   26066.14074752  .00013606  00000+0  79283-3 0  9990
2 61904  97.4213 140.2188 0054772 346.2042  13.7688 15.10822925 72825
