[{"OBJECT_NAME":"STARLINK-3563","OBJECT_ID":"2022-022G","EPOCH":"2026-03-09T07:23:35.601216","MEAN_MOTION":15.08837142,"ECCENTRICITY":0.00014638,"INCLINATION":53.2194,"RA_OF_ASC_NODE":20.8334,"ARG_OF_PERICENTER":84.9792,"MEAN_ANOMALY":275.1367,"EPHEMERIS_TYPE":0,"CLASSIFICATION_TYPE":"U","NORAD_CAT_ID":51858,"ELEMENT_SET_NO":999,"REV_AT_EPOCH":22296,"BSTAR":3.4786033e-5,"MEAN_MOTION_DOT":2.66e-6,"MEAN_MOTION_DDOT":0},{"OBJECT_NAME":"OBJECT L","OBJECT_ID":"2024-205L","EPOCH":"2026-03-07T03:22:40.585728","MEAN_MOTION":15.10822925,"ECCENTRICITY":0.00547724,"INCLINATION":97.4213,"RA_OF_ASC_NODE":140.2188,"ARG_OF_PERICENTER":346.2042,"MEAN_ANOMALY":13.7688,"EPHEMERIS_TYPE":0,"CLASSIFICATION_TYPE":"U","NORAD_CAT_ID":61904,"ELEMENT_SET_NO":999,"REV_AT_EPOCH":7282,"BSTAR":0.00079283043,"MEAN_MOTION_DOT":0.00013606,"MEAN_MOTION_DDOT":0}]
